FLOCK 4BE-17            
1 60492U 24149AA  26196.80714023  .00009522  00000+0  23614-3 0  9996
2 60492  97.3772 280.4168 0004454 144.9752 215.1788 15.40581932106665
FLOCK 4BE-22            
1 60494U 24149AC  26196.76273744  .00009991  00000+0  23634-3 0  9995
2 60494  97.3734 280.6098 0004732 152.4498 207.7001 15.41997883106706
FLOCK 4BE-34            
1 60495U 24149AD  26196.19625887  .00009716  00000+0  23026-3 0  9992
2 60495  97.3783 280.8775 0004945 161.2158 198.9273 15.41951345106640
FLOCK 4BE-32            
1 60497U 24149AF  26196.79394401  .00012016  00000+0  27354-3 0  9990
2 60497  97.3720 281.0480 0004978 157.0753 203.0718 15.43099997106740
FLOCK 4BE-11            
1 60501U 24149AK  26196.77365886  .00012053  00000+0  26720-3 0  9996
2 60501  97.3698 281.2850 0004922 156.7931 203.3540 15.43891147106761
FLOCK 4BE-24            
1 60505U 24149AP  26196.75726609  .00012173  00000+0  26780-3 0  9991
2 60505  97.3716 281.5368 0005090 168.5344 191.6021 15.44115038106772
FLOCK 4BE-29            
1 60509U 24149AT  26196.74770979  .00029483  00000+0  61485-3 0  9996
2 60509  97.3811 283.0723 0003651 175.6538 184.4744 15.45510334106826
FLOCK 4BE-2             
1 60511U 24149AV  26196.77197408  .00046071  00000+0  66200-3 0  9994
2 60511  97.3832 284.9505 0005333 172.0208 188.1132 15.55950565106944
FLOCK 4BE-13            
1 60512U 24149AW  26196.76881819  .00008546  00000+0  19828-3 0  9999
2 60512  97.3721 281.4910 0005138 154.1061 206.0445 15.42626487106772
FLOCK 4BE-27            
1 60513U 24149AX  26196.75284512  .00005823  00000+0  17429-3 0  9996
2 60513  97.3827 278.6254 0004091 180.4022 179.7219 15.34924575106523
FLOCK 4BE-9             
1 60514U 24149AY  26196.78743728  .00012558  00000+0  30026-3 0  9990
2 60514  97.3792 281.3519 0003751 168.9855 191.1475 15.41617186106726
FLOCK 4BE-6             
1 60516U 24149BA  26196.77445888  .00009281  00000+0  23215-3 0  9998
2 60516  97.3789 280.6416 0004418 171.2292 188.9032 15.40327147106676
FLOCK 4BE-14            
1 60517U 24149BB  26196.79570183  .00011283  00000+0  26771-3 0  9993
2 60517  97.3694 280.8270 0005453 174.8160 185.3145 15.41868142106734
FLOCK 4BE-1             
1 60518U 24149BC  26196.78142402  .00012392  00000+0  27803-3 0  9991
2 60518  97.3780 282.1939 0005016 174.3404 185.7902 15.43525871106780
FLOCK 4BE-28            
1 60519U 24149BD  26196.81546579  .00027319  00000+0  55423-3 0  9993
2 60519  97.3749 283.0464 0005258 173.7319 186.3997 15.46326227106862
FLOCK 4BE-5             
1 60559U 24149CV  26196.73449236  .00010058  00000+0  24548-3 0  9996
2 60559  97.3842 281.0240 0004097 169.5819 190.5513 15.41054010106671
